FENGYUN 1C DEB          
1 29966U 99025KQ  17345.83486783  .00000189  00000-0  10972-3 0  9994
2 29966  99.4505 295.6242 0041791 319.8333  39.9755 14.20886610564962
